#   SMS 1 AKM           # show the integrator problem with gsfc ver
# -1440 -720 60
1 09998U 74033F   05148.79417928 -.00000112  00000-0  00000+0 0  4480
2 09998   9.4958 313.1750 0270971 327.5225  30.8097  1.16186785 45878
